MOVE-II                 
1 43780U 18099Y   24221.72725028  .00038340  00000+0  18541-2 0  9991
2 43780  97.5169 284.3099 0007481 151.5698 208.5946 15.18473015310891
VESTA-1                 
1 43781U 18099Z   24221.68320052  .00028663  00000+0  16830-2 0  9991
2 43781  97.5144 278.5395 0007843 148.6218 211.5481 15.11649261310615
SNUSAT-2                
1 43782U 18099AA  24221.89667476  .00014591  00000+0  10031-2 0  9991
2 43782  97.5097 277.5051 0015891 121.2800 238.9986 15.05926259310506
SNUGLITE                
1 43784U 18099AC  24221.93812869  .00013674  00000+0  91142-3 0  9990
2 43784  97.4911 276.8587 0006141 124.4590 235.7219 15.07177223310580
ITASAT                  
1 43786U 18099AE  24221.66262213  .00010938  00000+0  76958-3 0  9992
2 43786  97.5051 277.4641 0017661 169.1351 191.0261 15.05108521310467
KAZSCISAT-1             
1 43787U 18099AF  24221.14267414  .00030583  00000+0  15523-2 0  9992
2 43787  97.5023 280.7403 0007367 130.4128 229.7749 15.16832871310807
EAGLET-I                
1 43790U 18099AJ  24221.89594805  .00009454  00000+0  69587-3 0  9998
2 43790  97.5260 278.1793 0014716 146.6294 213.5862 15.03489384310198
ESEO                    
1 43792U 18099AL  24221.91118905  .00005120  00000+0  41543-3 0  9994
2 43792  97.5177 274.7190 0011733 132.7492 227.4722 15.00026776310101
CSIM-FD                 
1 43793U 18099AM  24221.92243499  .00039064  00000+0  19022-2 0  9993
2 43793  97.5258 286.2623 0013134 130.0562 230.1826 15.18175906310775
ORBWEAVER 1             
1 43795U 18099AP  24222.19526913  .00302083  00000+0  38512-2 0  9999
2 43795  97.5238 297.9535 0003866 242.3804 117.7059 15.58277100311810
THEA                    
1 43796U 18099AQ  24221.92590302  .00018759  00000+0  11839-2 0  9990
2 43796  97.5410 282.9904 0014092 135.0387 225.1985 15.09055017309652
ASTROCAST 0.1           
1 43798U 18099AS  24221.73307737  .00019817  00000+0  11195-2 0  9990
2 43798  97.5310 284.1400 0010877 108.3308 251.9107 15.13096960310822
JY1SAT (JO-97)          
1 43803U 18099AX  24221.72133553  .00017468  00000+0  11177-2 0  9999
2 43803  97.5152 279.2536 0011009 121.8546 238.3756 15.08596669310611
SUOMI-100               
1 43804U 18099AY  24221.73504934  .00015456  00000+0  10119-2 0  9996
2 43804  97.5225 279.0503 0017008 121.0173 239.2728 15.07710602310598
AL-FARABI 2             
1 43805U 18099AZ  24221.89589224  .00025919  00000+0  14760-2 0  9990
2 43805  97.5060 281.2533 0011770 111.6314 248.6172 15.12741962310806
CENTAURI-1              
1 43809U 18099BD  24221.68442957  .00010228  00000+0  73124-3 0  9999
2 43809  97.5257 277.7381 0019818 138.5017 221.7719 15.04491178310179
GLOBAL-2                
1 43812U 18099BG  24222.12779148  .00007178  00000+0  56347-3 0  9996
2 43812  97.4591 274.8350 0002005 282.2507  77.8493 15.01207545310032
BRIO                    
1 43813U 18099BH  24221.75112793  .00037582  00000+0  18399-2 0  9998
2 43813  97.5630 290.0187 0007591 112.6621 247.5416 15.18049017310659
SEAHAWK-1               
1 43820U 18099BQ  24221.90180634  .00014748  00000+0  10098-2 0  9999
2 43820  97.4997 276.8806 0013076 136.4771 223.7490 15.06108407309963
SAUDISAT 5A             
1 43831U 18102A   24222.49900087  .00009018  00000+0  46255-3 0  9992
2 43831  97.4038 286.8689 0011876   1.1981 358.9279 15.16709112312677
SAUDISAT 5B             
1 43833U 18102C   24222.51456977  .00008949  00000+0  45075-3 0  9992
2 43833  97.4091 288.7902 0012732   4.7404 355.3948 15.17340923312764
2018-102D               
1 43834U 18102D   24222.50338581  .00018937  00000+0  80129-3 0  9999
2 43834  97.4207 293.4283 0010135 354.7634   5.3495 15.23194223313001
2018-102E               
1 43835U 18102E   24222.49131337  .00050037  00000+0  13150-2 0  9994
2 43835  97.4269 300.9646 0007422 322.4177  37.6549 15.38411212313493
2018-102F               
1 43836U 18102F   24222.47721925  .00052141  00000+0  13092-2 0  9994
2 43836  97.4322 302.7262 0007282 321.5591  38.5135 15.39801700313523
2018-102G               
1 43837U 18102G   24222.53392000  .00063666  00000+0  14323-2 0  9992
2 43837  97.4357 304.7235 0006902 317.5847  42.4867 15.43069288313664
2018-102H               
1 43838U 18102H   24222.46747934  .00251241  00000+0  23391-2 0  9998
2 43838  97.3713 307.0018 0011190 290.7338  69.2723 15.66519347313970
2018-102J               
1 43839U 18102J   24222.49176137  .00048371  00000+0  12011-2 0  9998
2 43839  97.4524 307.5487 0008244 326.8618  33.2110 15.40151936313637
ISAT                    
1 43879U 18111D   24221.71807560  .00019154  00000+0  11144-2 0  9990
2 43879  97.6128 127.2086 0013276 168.4616 191.6921 15.12020472305330
UWE-4                   
1 43880U 18111E   24221.73989921  .00018340  00000+0  10996-2 0  9996
2 43880  97.6057 127.1130 0016324 180.1723 179.9504 15.10903733307368
D-STAR ONE (SPARROW)    
1 43881U 18111F   24221.73701340  .00020944  00000+0  12004-2 0  9999
2 43881  97.6225 129.2317 0008847 205.3673 154.7124 15.12583201307423
LEMUR-2-TINYKEV         
1 43883U 18111H   24221.70640644  .00062218  00000+0  22558-2 0  9992
2 43883  97.6042 135.6738 0010760 128.5201 231.7004 15.28067599305908
LEMUR-2-REMY-COLTON     
1 43884U 18111J   24221.74609524  .00043665  00000+0  18539-2 0  9998
2 43884  97.6233 135.9232 0004233 119.0751 241.0909 15.22933279305848
MICRODRAGON             
1 43935U 19003D   24222.48337097  .00171308  00000+0  11918-2 0  9991
2 43935  97.0705 238.8254 0008459 176.0592 184.0742 15.73837750310288
JILIN-1 09              
1 43943U 19005B   24222.55446519  .00010856  00000+0  58898-3 0  9999
2 43943  97.4886 315.5425 0011285 178.6478 181.4786 15.14676773306573
JILIN-1 10              
1 43946U 19005E   24222.52215228  .00010495  00000+0  56887-3 0  9995
2 43946  97.4890 315.5501 0015975 135.3394 224.9128 15.14662363306497
EGYPTSAT-A (MISRSAT-A)  
1 44047U 19008A   24222.45377080  .00002050  00000+0  33154-3 0  9998
2 44047  98.0108 285.9427 0000940  94.6802 265.4513 14.72381252293663
EMISAT                  
1 44078U 19018A   24222.43375425  .00000924  00000+0  28372-3 0  9996
2 44078  98.3341 280.5985 0019896 103.4338 256.9072 14.43742850282400
JILIN-1 GAOFEN 3A       
1 44312U 19032C   24222.06396236  .00016140  00000+0  91949-3 0  9992
2 44312  44.9836  70.7037 0007525  46.9707 313.1799 15.12666956284662
XIAOXIANG 4             
1 44313U 19032D   24222.53614762  .00029183  00000+0  12911-2 0  9994
2 44313  44.9916  48.9104 0003767  75.6956 284.4342 15.21228347284991
WT 1A                   
1 44315U 19032F   24222.55373086  .00022681  00000+0  10942-2 0  9997
2 44315  44.9788  45.7233 0008045  84.8387 275.3410 15.18345940284992
WT 1B                   
1 44316U 19032G   24222.08891286  .00011800  00000+0  76829-3 0  9991
2 44316  44.9798 105.5506 0012465  13.4193 346.7011 15.07992935284211
PROX-1                  
1 44339U 19036A   24222.14925629  .00016214  00000+0  27144-2 0  9995
2 44339  23.9983 244.3694 0008293 225.5045 134.4771 14.68190511273124
NPSAT1                  
1 44340U 19036B   24222.23110500  .00011107  00000+0  21015-2 0  9998
2 44340  23.9995 271.4066 0009792 174.8766 185.1829 14.62500684272861
FORMOSAT 7-3            
1 44343U 19036E   24221.86915519  .00012428  00000+0  76712-3 0  9994
2 44343  23.9990 149.0318 0001227  94.8095 265.2548 15.07874020280865
FORMOSAT 7-1            
1 44349U 19036L   24221.53825199  .00012209  00000+0  75314-3 0  9992
2 44349  24.0001 327.2972 0001635  55.4836 304.5821 15.07877753282646
FORMOSAT 7-4            
1 44350U 19036M   24221.69187832  .00012780  00000+0  78968-3 0  9998
2 44350  24.0002  28.3213 0001559  88.8076 271.2605 15.07859788282106
FORMOSAT 7-2            
1 44351U 19036N   24221.97950708  .00013569  00000+0  83897-3 0  9993
2 44351  23.9988  80.6827 0001831  94.5259 265.5454 15.07889906281630
FORMOSAT 7-6            
1 44353U 19036Q   24221.45057813  .00011022  00000+0  67849-3 0  9994
2 44353  23.9986 265.1469 0001367  83.0081 277.0578 15.07848570279771
FORMOSAT 7-5            
1 44358U 19036V   24221.29538537  .00011272  00000+0  69395-3 0  9993
2 44358  23.9986 205.9758 0001257 144.4555 215.6032 15.07869822280313
METEOR-M2 2             
1 44387U 19038A   24222.48476022  .00000467  00000+0  22331-3 0  9992
2 44387  98.8309 191.9291 0001832 129.3681 230.7660 14.23916444264971
SONATE                  
1 44400U 19038Q   24221.92549326  .00036981  00000+0  10220-2 0  9997
2 44400  97.7140 218.4806 0012227 276.5002  83.4850 15.36877989282178
LUCKY-7                 
1 44406U 19038W   24222.48057052  .00070053  00000+0  12575-2 0  9998
2 44406  97.7018 224.0362 0009041 240.8732 119.1613 15.49615585282600
COSMOS 2535             
1 44421U 19039A   24222.53742602  .00003437  00000+0  37242-3 0  9995
2 44421  97.6630 263.4473 0007448 307.5585  52.4956 14.88829756275736
QIANSHENG 1-01          
1 44486U 19052A   24222.48000454  .00039004  00000+0  13977-2 0  9994
2 44486  97.4063 290.5164 0014429 110.9115 249.3670 15.28531760274835
TIANQI-2                
1 44488U 19052C   24222.44923980  .00089278  00000+0  17695-2 0  9999
2 44488  97.4045 298.0108 0009666  90.7613 269.4744 15.46675540275339
GLOBAL-4                
1 44499U 19054E   24221.85756423  .00029101  00000+0  91720-3 0  9994
2 44499  45.0161  69.7510 0009765 161.6041 198.5198 15.32400642275690
XIAOXIANG 1-07          
1 44519U 19058A   24222.49598198  .00060359  00000+0  25837-2 0  9990
2 44519  97.7777 243.4434 0008860  52.0495 308.1540 15.22537649269822
ZY-1 02D                
1 44528U 19059A   24222.50870780  .00000593  00000+0  22136-3 0  9997
2 44528  98.4072 293.5922 0001243  51.4818 308.6479 14.35447631257261
TAURUS-1 (JINNIUZUO 1)  
1 44530U 19059C   24222.57273789  .00013905  00000+0  31425-2 0  9994
2 44530  98.5803 344.1987 0010908 246.4988 113.5063 14.56299821259536
